line1,line2,validFromUtcTime
1 00000U 00000E   26001.00000000  .00000000  00000-0  27772-4 0    01,2 00000  88.8986  45.3313 0009828 269.4169 188.1880 13.55236669    02,2026-01-01T00:00:00Z
1 00000U 00000E   26002.00000000  .00000000  00000-0  27772-4 0    02,2 00000  88.8986  45.2192 0009828 266.5071  27.0385 13.55236707    00,2026-01-02T00:00:00Z
